NOAA 15                 
1 25338U 98030A   24013.10493208  .00000283  00000+0  13560-3 0  9998
2 25338  98.5862  43.3683 0011259  63.8264 296.4073 14.26470450335189
NOAA 18                 
1 28654U 05018A   24013.15878200  .00000344  00000+0  20749-3 0  9995
2 28654  98.8908  91.3464 0014947 143.1002 217.1201 14.13098350961220
NOAA 19                 
1 33591U 09005A   24013.15952372  .00000297  00000+0  18414-3 0  9997
2 33591  99.0720  67.1512 0013981  16.0074 344.1536 14.12904555769590
METOP-B                 
1 38771U 12049A   24013.12278263  .00000242  00000+0  13068-3 0  9991
2 38771  98.6519  73.6810 0001683 106.3315 253.8047 14.21452232587373
SARAL                   
1 39086U 13009A   24012.95638067  .00000229  00000+0  10082-3 0  9998
2 39086  98.5457 200.2458 0002564  48.5461 311.5942 14.32326275568719
METOP-C                 
1 43689U 18087A   24013.16044872  .00000241  00000+0  13018-3 0  9998
2 43689  98.7038  74.5370 0003047 149.9430 210.1923 14.21493445268952
ANGELS                  
1 44876U 19092D   24012.51759906  .00008652  00000+0  35741-3 0  9994
2 44876  97.4728 201.1736 0011003 145.5382 214.6571 15.24196849225476
GAZELLE                 
1 54023U 22127A   24012.93122536  .00000322  00000+0  11108-3 0  9998
2 54023  98.3351  10.7713 0013144 348.3436  11.7448 14.41976163 66603
EOS-6 (OCEANSAT-3)      
1 54361U 22158A   24013.22456287  .00000712  00000+0  20782-3 0  9994
2 54361  98.3527 112.3952 0001143  93.6216 266.5107 14.46991061 59714
